STARLINK-5831           
1 57332U 23099E   24283.02349228 -.00002369  00000+0 -16040-3 0  9997
2 57332  43.0024 176.6481 0000554 284.2815  75.7966 15.02529396 68390
STARLINK-5585           
1 57333U 23099F   24283.08885724 -.00003242  00000+0 -22513-3 0  9993
2 57333  43.0030 176.2761 0001151 273.1049  86.9662 15.02525888 68406
STARLINK-5589           
1 57334U 23099G   24283.01682748 -.00001747  00000+0 -11432-3 0  9994
2 57334  43.0005 176.5945 0000749 221.2759 138.8027 15.02527684 68396
STARLINK-6316           
1 57335U 23099H   24283.07221184 -.00003111  00000+0 -21540-3 0  9992
2 57335  43.0058 176.1515 0001946 269.7174  90.3446 15.02523898 68404
STARLINK-6320           
1 57336U 23099J   24282.97576327 -.00003727  00000+0 -26105-3 0  9998
2 57336  43.0029 176.2704 0001308 278.7804  81.2890 15.02524875 68392
STARLINK-6322           
1 57337U 23099K   24283.07999144  .00000503  00000+0  52327-4 0  9990
2 57337  43.0027 176.2085 0001228 266.0636  94.0066 15.02521750 68405
STARLINK-6374           
1 57338U 23099L   24283.07554759 -.00000213  00000+0 -69138-6 0  9990
2 57338  43.0035 176.1739 0001263 271.9652  88.1046 15.02524632 68406
STARLINK-6332           
1 57339U 23099M   24283.01570556 -.00000109  00000+0  70080-5 0  9998
2 57339  43.0010 176.5881 0000295 333.9802  26.1025 15.02546415 68392
STARLINK-6321           
1 57340U 23099N   24283.12980829 -.00002323  00000+0 -15698-3 0  9993
2 57340  43.0020 175.7190 0001724 262.5244  97.5402 15.02524968 69159
STARLINK-6377           
1 57341U 23099P   24283.13535855 -.00001203  00000+0 -74007-4 0  9996
2 57341  43.0041 175.7607 0001406 274.1569  85.9113 15.02532108 69113
STARLINK-6375           
1 57342U 23099Q   24283.11318168 -.00003235  00000+0 -22470-3 0  9994
2 57342  43.0037 175.5970 0001360 267.4742  92.5945 15.02510480 69157
STARLINK-6379           
1 57343U 23099R   24283.06555997 -.00003349  00000+0 -23300-3 0  9991
2 57343  43.0072 176.0967 0002405 270.6612  89.3955 15.02523212 68401
STARLINK-6380           
1 57344U 23099S   24282.99018687 -.00000702  00000+0 -36893-4 0  9995
2 57344  42.9997 176.3931 0000422 299.6956  60.3844 15.02533091 68399
STARLINK-6373           
1 57345U 23099T   24283.06001847 -.00001681  00000+0 -10947-3 0  9993
2 57345  43.0028 176.0564 0001373 257.7402 102.3287 15.02514223 68409
STARLINK-6359           
1 57346U 23099U   24283.10649476 -.00000499  00000+0 -21882-4 0  9992
2 57346  43.0042 175.5449 0001166 268.6378  91.4331 15.02533829 68417
STARLINK-6378           
1 57347U 23099V   24283.11870234 -.00000740  00000+0 -39712-4 0  9992
2 57347  43.0031 175.6363 0001400 267.0640  93.0042 15.02536108 69150
STARLINK-6372           
1 57348U 23099W   24283.10096351  .00000225  00000+0  31698-4 0  9993
2 57348  43.0021 175.5060 0000809 277.7074  82.3677 15.02518415 68418
STARLINK-6376           
1 57349U 23099X   24283.10318050 -.00001277  00000+0 -79464-4 0  9990
2 57349  43.0054 175.5235 0001209 272.2390  87.8314 15.02524994 69132
STARLINK-6362           
1 57350U 23099Y   24283.04261808 -.00001577  00000+0 -10172-3 0  9996
2 57350  43.0026 163.7617 0001191 271.0800  88.9905 15.02527522 68541
STARLINK-6331           
1 57351U 23099Z   24283.09985247 -.00000860  00000+0 -48596-4 0  9998
2 57351  43.0042 175.4971 0000405 259.0693 101.0104 15.02524369 68416
STARLINK-6297           
1 57352U 23099AA  24283.03595400 -.00002082  00000+0 -13912-3 0  9992
2 57352  43.0051 163.7082 0001852 264.4392  95.6239 15.02530976 68545
STARLINK-6324           
1 57353U 23099AB  24283.09762322 -.00001564  00000+0 -10072-3 0  9996
2 57353  43.0028 175.4796 0001694 264.6630  95.4019 15.02527049 68410
STARLINK-6293           
1 57354U 23099AC  24283.02706892 -.00001650  00000+0 -10712-3 0  9997
2 57354  43.0003 163.6411 0001095 257.4106 102.6613 15.02530753 68541
STARLINK-6276           
1 57355U 23099AD  24283.10576789  .00002358  00000+0  18957-3 0  9990
2 57355  43.0023 163.3755 0001279 275.4527  84.6169 15.02530960 68559
STARLINK-6355           
1 57356U 23099AE  24283.02595648 -.00002057  00000+0 -13725-3 0  9993
2 57356  43.0017 163.6319 0001105 264.1081  95.9636 15.02534733 68545
STARLINK-5600           
1 57357U 23099AF  24283.03374333 -.00000623  00000+0 -31093-4 0  9997
2 57357  43.0047 163.6919 0001257 261.0484  99.0216 15.02527062 68542
STARLINK-6299           
1 57358U 23099AG  24282.95393685 -.00004907  00000+0 -34855-3 0  9996
2 57358  43.0025 163.9519 0001669 253.0124 107.0536 15.02520710 69276
STARLINK-6347           
1 57359U 23099AH  24283.03706768 -.00001081  00000+0 -64929-4 0  9993
2 57359  43.0045 163.7173 0001646 265.8086  94.2568 15.02530449 68547
STARLINK-6348           
1 57360U 23099AJ  24283.01375437 -.00000913  00000+0 -52532-4 0  9998
2 57360  43.0027 163.5448 0001336 269.0541  91.0148 15.02536650 68549
STARLINK-6340           
1 57361U 23099AK  24282.95615444 -.00001804  00000+0 -11855-3 0  9998
2 57361  43.0022 163.9694 0001157 271.1653  88.9056 15.02527780 68537
