OBJECT_NAME,OBJECT_ID,EPOCH,MEAN_MOTION,ECCENTRICITY,INCLINATION,RA_OF_ASC_NODE,ARG_OF_PERICENTER,MEAN_ANOMALY,EPHEMERIS_TYPE,CLASSIFICATION_TYPE,NORAD_CAT_ID,ELEMENT_SET_NO,REV_AT_EPOCH,BSTAR,MEAN_MOTION_DOT,MEAN_MOTION_DDOT
STARLINK-5831,2023-099E,2024-10-09T00:33:49.732992,15.02529396,0.0000554,43.0024,176.6481,284.2815,75.7966,0,U,57332,999,6839,-1.604E-04,-2.369E-05,0
STARLINK-5585,2023-099F,2024-10-09T02:07:57.265536,15.02525888,0.0001151,43.0030,176.2761,273.1049,86.9662,0,U,57333,999,6840,-2.2513E-04,-3.242E-05,0
STARLINK-5589,2023-099G,2024-10-09T00:24:13.894272,15.02527684,0.0000749,43.0005,176.5945,221.2759,138.8027,0,U,57334,999,6839,-1.1432E-04,-1.747E-05,0
STARLINK-6316,2023-099H,2024-10-09T01:43:59.102976,15.02523898,0.0001946,43.0058,176.1515,269.7174,90.3446,0,U,57335,999,6840,-2.154E-04,-3.111E-05,0
STARLINK-6320,2023-099J,2024-10-08T23:25:05.946528,15.02524875,0.0001308,43.0029,176.2704,278.7804,81.2890,0,U,57336,999,6839,-2.6105E-04,-3.727E-05,0
STARLINK-6322,2023-099K,2024-10-09T01:55:11.260416,15.02521750,0.0001228,43.0027,176.2085,266.0636,94.0066,0,U,57337,999,6840,5.2327E-05,5.03E-06,0
STARLINK-6374,2023-099L,2024-10-09T01:48:47.311776,15.02524632,0.0001263,43.0035,176.1739,271.9652,88.1046,0,U,57338,999,6840,-6.9138E-07,-2.13E-06,0
STARLINK-6332,2023-099M,2024-10-09T00:22:36.960384,15.02546415,0.0000295,43.0010,176.5881,333.9802,26.1025,0,U,57339,999,6839,7.008E-06,-1.09E-06,0
STARLINK-6321,2023-099N,2024-10-09T03:06:55.436256,15.02524968,0.0001724,43.0020,175.7190,262.5244,97.5402,0,U,57340,999,6915,-1.5698E-04,-2.323E-05,0
STARLINK-6377,2023-099P,2024-10-09T03:14:54.978720,15.02532108,0.0001406,43.0041,175.7607,274.1569,85.9113,0,U,57341,999,6911,-7.4007E-05,-1.203E-05,0
STARLINK-6375,2023-099Q,2024-10-09T02:42:58.897152,15.02510480,0.000136,43.0037,175.5970,267.4742,92.5945,0,U,57342,999,6915,-2.247E-04,-3.235E-05,0
STARLINK-6379,2023-099R,2024-10-09T01:34:24.381408,15.02523212,0.0002405,43.0072,176.0967,270.6612,89.3955,0,U,57343,999,6840,-2.33E-04,-3.349E-05,0
STARLINK-6380,2023-099S,2024-10-08T23:45:52.145568,15.02533091,0.0000422,42.9997,176.3931,299.6956,60.3844,0,U,57344,999,6839,-3.6893E-05,-7.02E-06,0
STARLINK-6373,2023-099T,2024-10-09T01:26:25.595808,15.02514223,0.0001373,43.0028,176.0564,257.7402,102.3287,0,U,57345,999,6840,-1.0947E-04,-1.681E-05,0
STARLINK-6359,2023-099U,2024-10-09T02:33:21.147264,15.02533829,0.0001166,43.0042,175.5449,268.6378,91.4331,0,U,57346,999,6841,-2.1882E-05,-4.99E-06,0
STARLINK-6378,2023-099V,2024-10-09T02:50:55.882176,15.02536108,0.00014,43.0031,175.6363,267.0640,93.0042,0,U,57347,999,6915,-3.9712E-05,-7.4E-06,0
STARLINK-6372,2023-099W,2024-10-09T02:25:23.247264,15.02518415,0.0000809,43.0021,175.5060,277.7074,82.3677,0,U,57348,999,6841,3.1698E-05,2.25E-06,0
STARLINK-6376,2023-099X,2024-10-09T02:28:34.795200,15.02524994,0.0001209,43.0054,175.5235,272.2390,87.8314,0,U,57349,999,6913,-7.9464E-05,-1.277E-05,0
STARLINK-6362,2023-099Y,2024-10-09T01:01:22.202112,15.02527522,0.0001191,43.0026,163.7617,271.0800,88.9905,0,U,57350,999,6854,-1.0172E-04,-1.577E-05,0
STARLINK-6331,2023-099Z,2024-10-09T02:23:47.253408,15.02524369,0.0000405,43.0042,175.4971,259.0693,101.0104,0,U,57351,999,6841,-4.8596E-05,-8.6E-06,0
STARLINK-6297,2023-099AA,2024-10-09T00:51:46.425600,15.02530976,0.0001852,43.0051,163.7082,264.4392,95.6239,0,U,57352,999,6854,-1.3912E-04,-2.082E-05,0
STARLINK-6324,2023-099AB,2024-10-09T02:20:34.646208,15.02527049,0.0001694,43.0028,175.4796,264.6630,95.4019,0,U,57353,999,6841,-1.0072E-04,-1.564E-05,0
STARLINK-6293,2023-099AC,2024-10-09T00:38:58.754688,15.02530753,0.0001095,43.0003,163.6411,257.4106,102.6613,0,U,57354,999,6854,-1.0712E-04,-1.65E-05,0
STARLINK-6276,2023-099AD,2024-10-09T02:32:18.345696,15.02530960,0.0001279,43.0023,163.3755,275.4527,84.6169,0,U,57355,999,6855,1.8957E-04,2.358E-05,0
STARLINK-6355,2023-099AE,2024-10-09T00:37:22.639872,15.02534733,0.0001105,43.0017,163.6319,264.1081,95.9636,0,U,57356,999,6854,-1.3725E-04,-2.057E-05,0
STARLINK-5600,2023-099AF,2024-10-09T00:48:35.423712,15.02527062,0.0001257,43.0047,163.6919,261.0484,99.0216,0,U,57357,999,6854,-3.1093E-05,-6.23E-06,0
STARLINK-6299,2023-099AG,2024-10-08T22:53:40.143840,15.02520710,0.0001669,43.0025,163.9519,253.0124,107.0536,0,U,57358,999,6927,-3.4855E-04,-4.907E-05,0
STARLINK-6347,2023-099AH,2024-10-09T00:53:22.647552,15.02530449,0.0001646,43.0045,163.7173,265.8086,94.2568,0,U,57359,999,6854,-6.4929E-05,-1.081E-05,0
STARLINK-6348,2023-099AJ,2024-10-09T00:19:48.377568,15.02536650,0.0001336,43.0027,163.5448,269.0541,91.0148,0,U,57360,999,6854,-5.2532E-05,-9.13E-06,0
STARLINK-6340,2023-099AK,2024-10-08T22:56:51.743616,15.02527780,0.0001157,43.0022,163.9694,271.1653,88.9056,0,U,57361,999,6853,-1.1855E-04,-1.804E-05,0
